NORAD_CAT_ID,OBJECT_NAME,OBJECT_TYPE,EPOCH,MEAN_MOTION,ECCENTRICITY,INCLINATION,RA_OF_ASC_NODE,ARG_OF_PERICENTER,MEAN_ANOMALY,BSTAR,MEAN_MOTION_DOT,MEAN_MOTION_DDOT,TLE_LINE0,TLE_LINE1,TLE_LINE2,SEMIMAJOR_AXIS,PERIOD,APOGEE,PERIGEE,DECAYED
53025.0,STARLINK-4218,PAYLOAD,2023-04-16 14:30:30,15.088525,0.0001424,53.214,154.0467,99.4389,260.6764,0.0003031,4.541e-05,0.0,0 STARLINK-4218,1 53025U 22076AR  23106.60451485  .00004541  00000-0  30310-3 0  9991,2 53025  53.2140 154.0467 0001424  99.4389 260.6764 15.08852500 43723,6917.842,95.437,540.692,538.722,0.0
53025.0,STARLINK-4218,PAYLOAD,2023-04-17 12:45:54,15.08839527,0.0001372,53.215,149.882,114.2112,245.9024,0.00016213,2.293e-05,0.0,0 STARLINK-4218,1 53025U 22076AR  23107.53188167  .00002293  00000-0  16213-3 0  9996,2 53025  53.2150 149.8820 0001372 114.2112 245.9024 15.08839527 43865,6917.882,95.438,540.696,538.798,0.0
53025.0,STARLINK-4218,PAYLOAD,2023-04-17 14:21:17,15.08841255,0.0001332,53.2151,149.5853,117.2772,242.8356,0.00022016,3.218e-05,0.0,0 STARLINK-4218,1 53025U 22076AR  23107.59812074  .00003218  00000-0  22016-3 0  9999,2 53025  53.2151 149.5853 0001332 117.2772 242.8356 15.08841255 43405,6917.877,95.437,540.663,538.82,0.0
53025.0,STARLINK-4218,PAYLOAD,2023-04-18 07:50:32,15.08845142,0.0001407,53.215,146.3148,107.2832,252.8314,0.00042046,6.411e-05,0.0,0 STARLINK-4218,1 53025U 22076AR  23108.32676262  .00006411  00000-0  42046-3 0  9991,2 53025  53.2150 146.3148 0001407 107.2832 252.8314 15.08845142 43511,6917.865,95.437,540.703,538.756,0.0
53025.0,STARLINK-4218,PAYLOAD,2023-04-18 14:12:04,15.08850305,0.0001479,53.2154,145.1238,112.9758,247.139,0.00047307,7.251e-05,0.0,0 STARLINK-4218,1 53025U 22076AR  23108.59172019  .00007251  00000-0  47307-3 0  9999,2 53025  53.2154 145.1238 0001479 112.9758 247.1390 15.08850305 44026,6917.849,95.437,540.737,538.691,0.0
53025.0,STARLINK-4218,PAYLOAD,2023-04-18 18:58:14,15.08835126,0.0001152,53.2156,144.2336,97.7951,262.3172,0.00012579,1.714e-05,0.0,0 STARLINK-4218,1 53025U 22076AR  23108.79044379  .00001714  00000-0  12579-3 0  9999,2 53025  53.2156 144.2336 0001152  97.7951 262.3172 15.08835126 43581,6917.895,95.438,540.557,538.963,0.0
53025.0,STARLINK-4218,PAYLOAD,2023-04-18 22:09:00,15.0883758,0.0001239,53.2142,143.6394,96.4034,263.71,9.6896e-05,1.254e-05,0.0,0 STARLINK-4218,1 53025U 22076AR  23108.92292423  .00001254  00000-0  96896-4 0  9993,2 53025  53.2142 143.6394 0001239  96.4034 263.7100 15.08837580 44074,6917.888,95.438,540.61,538.896,0.0
53025.0,STARLINK-4218,PAYLOAD,2023-04-19 12:27:28,15.08841276,0.0001215,53.2141,140.9633,88.9357,271.1774,0.00012248,1.662e-05,0.0,0 STARLINK-4218,1 53025U 22076AR  23109.51908435  .00001662  00000-0  12248-3 0  9997,2 53025  53.2141 140.9633 0001215  88.9357 271.1774 15.08841276 43691,6917.876,95.437,540.582,538.901,0.0
53025.0,STARLINK-4218,PAYLOAD,2023-04-19 18:49:01,15.08836036,0.0001241,53.2139,139.7736,88.453,271.6604,2.1988e-05,6.2e-07,0.0,0 STARLINK-4218,1 53025U 22076AR  23109.78404699  .00000062  00000-0  21988-4 0  9994,2 53025  53.2139 139.7736 0001241  88.4530 271.6604 15.08836036 43735,6917.893,95.438,540.616,538.899,0.0
53025.0,STARLINK-4218,PAYLOAD,2023-04-20 12:18:16,15.08840571,0.0001269,53.2136,136.5022,91.2905,268.8233,0.00011295,1.51e-05,0.0,0 STARLINK-4218,1 53025U 22076AR  23110.51268674  .00001510  00000-0  11295-3 0  9996,2 53025  53.2136 136.5022 0001269  91.2905 268.8233 15.08840571 43840,6917.879,95.438,540.622,538.866,0.0
53025.0,STARLINK-4218,PAYLOAD,2023-04-20 13:53:39,15.08844165,0.0001234,53.2136,136.2054,89.8249,270.2885,0.00018385,2.64e-05,0.0,0 STARLINK-4218,1 53025U 22076AR  23110.57892533  .00002640  00000-0  18385-3 0  9991,2 53025  53.2136 136.2054 0001234  89.8249 270.2885 15.08844165 44325,6917.868,95.437,540.586,538.879,0.0
53025.0,STARLINK-4218,PAYLOAD,2023-04-20 18:39:48,15.08833857,3.12e-05,53.214,135.3159,139.249,220.8525,-7.466e-05,-1.475e-05,0.0,0 STARLINK-4218,1 53025U 22076AR  23110.77764527 -.00001475  00000-0 -74660-4 0  9990,2 53025  53.2140 135.3159 0000312 139.2490 220.8525 15.08833857 43888,6917.899,95.438,539.98,539.548,0.0
53025.0,STARLINK-4218,PAYLOAD,2023-04-21 05:47:30,15.08833589,7.5e-05,53.2137,133.2326,98.6788,261.4289,4.5344e-05,4.34e-06,0.0,0 STARLINK-4218,1 53025U 22076AR  23111.24133050  .00000434  00000-0  45344-4 0  9993,2 53025  53.2137 133.2326 0000750  98.6788 261.4289 15.08833589 43959,6917.9,95.438,540.284,539.246,0.0
53025.0,STARLINK-4218,PAYLOAD,2023-04-21 13:44:26,15.08843089,0.0001085,53.2134,131.7449,98.234,261.8775,0.00021943,3.206e-05,0.0,0 STARLINK-4218,1 53025U 22076AR  23111.57252874  .00003206  00000-0  21943-3 0  9993,2 53025  53.2134 131.7449 0001085  98.2340 261.8775 15.08843089 44475,6917.871,95.437,540.487,538.985,0.0
53025.0,STARLINK-4218,PAYLOAD,2023-04-22 18:21:21,15.08862635,0.0001244,53.213,126.3926,75.7109,284.4022,0.00029961,4.487e-05,0.0,0 STARLINK-4218,1 53025U 22076AR  23112.76482996  .00004487  00000-0  29961-3 0  9995,2 53025  53.2130 126.3926 0001244  75.7109 284.4022 15.08862635 44655,6917.811,95.436,540.537,538.816,0.0
53025.0,STARLINK-4218,PAYLOAD,2023-04-23 11:50:36,15.08837366,0.0001473,53.2133,123.1209,81.3579,278.758,-0.00031985,-5.374e-05,0.0,0 STARLINK-4218,1 53025U 22076AR  23113.49347473 -.00005374  00000-0 -31985-3 0  9993,2 53025  53.2133 123.1209 0001473  81.3579 278.7580 15.08837366 44765,6917.888,95.438,540.772,538.734,0.0
53025.0,STARLINK-4218,PAYLOAD,2023-04-24 11:41:23,15.08855527,0.0001577,53.2151,118.6601,81.7041,278.413,0.0014242,0.0002246,0.0,0 STARLINK-4218,1 53025U 22076AR  23114.48708188  .00022460  00000-0  14242-2 0  9996,2 53025  53.2151 118.6601 0001577  81.7041 278.4130 15.08855527 44917,6917.833,95.437,540.789,538.607,0.0
53025.0,STARLINK-4218,PAYLOAD,2023-04-25 03:35:15,15.08827835,0.0001716,53.2156,115.6875,88.6481,271.4707,6.9603e-05,8.19e-06,0.0,0 STARLINK-4218,1 53025U 22076AR  23115.14948839  .00000819  00000-0  69603-4 0  9996,2 53025  53.2156 115.6875 0001716  88.6481 271.4707 15.08827835 45017,6917.918,95.438,540.97,538.595,0.0
53025.0,STARLINK-4218,PAYLOAD,2023-04-25 09:56:48,15.08825705,0.0001551,53.2163,114.4964,82.5569,277.5599,6.642e-05,7.69e-06,0.0,0 STARLINK-4218,1 53025U 22076AR  23115.41445231  .00000769  00000-0  66420-4 0  9992,2 53025  53.2163 114.4964 0001551  82.5569 277.5599 15.08825705 44589,6917.924,95.438,540.862,538.716,0.0
53025.0,STARLINK-4218,PAYLOAD,2023-04-26 09:47:36,15.08832719,0.000142,53.2158,110.0365,91.6578,268.4576,3.3178e-07,-2.83e-06,0.0,0 STARLINK-4218,1 53025U 22076AR  23116.40805557 -.00000283  00000-0  33178-6 0  9991,2 53025  53.2158 110.0365 0001420  91.6578 268.4576 15.08832719 44730,6917.903,95.438,540.75,538.785,0.0
53025.0,STARLINK-4218,PAYLOAD,2023-04-26 16:09:08,15.08836144,0.0001435,53.2164,108.8472,94.8602,265.2554,5.3179e-05,5.58e-06,0.0,0 STARLINK-4218,1 53025U 22076AR  23116.67301533  .00000558  00000-0  53179-4 0  9990,2 53025  53.2164 108.8472 0001435  94.8602 265.2554 15.08836144 44771,6917.892,95.438,540.75,538.764,0.0
53025.0,STARLINK-4218,PAYLOAD,2023-04-27 08:02:59,15.08839009,0.0001362,53.2165,105.8734,94.5285,265.5863,0.00019852,2.873e-05,0.0,0 STARLINK-4218,1 53025U 22076AR  23117.33541424  .00002873  00000-0  19852-3 0  9990,2 53025  53.2165 105.8734 0001362  94.5285 265.5863 15.08839009 44873,6917.883,95.438,540.691,538.806,0.0
53025.0,STARLINK-4218,PAYLOAD,2023-04-28 07:53:47,15.08842301,0.0001303,53.2165,101.4128,93.2659,266.8482,0.00013863,1.919e-05,0.0,0 STARLINK-4218,1 53025U 22076AR  23118.32901632  .00001919  00000-0  13863-3 0  9997,2 53025  53.2165 101.4128 0001303  93.2659 266.8482 15.08842301 45026,6917.873,95.437,540.64,538.837,0.0
53025.0,STARLINK-4218,PAYLOAD,2023-04-28 15:50:42,15.08839863,0.0001307,53.2166,99.9258,91.2027,268.9115,0.0001063,1.404e-05,0.0,0 STARLINK-4218,1 53025U 22076AR  23118.66021858  .00001404  00000-0  10630-3 0  9995,2 53025  53.2166  99.9258 0001307  91.2027 268.9115 15.08839863 45545,6917.881,95.438,540.65,538.842,0.0
53025.0,STARLINK-4218,PAYLOAD,2023-04-29 06:09:10,15.08841533,0.0001393,53.217,97.25,89.154,270.9611,6.7012e-05,7.79e-06,0.0,0 STARLINK-4218,1 53025U 22076AR  23119.25637720  .00000779  00000-0  67012-4 0  9993,2 53025  53.2170  97.2500 0001393  89.1540 270.9611 15.08841533 45161,6917.876,95.437,540.704,538.777,0.0
53025.0,STARLINK-4218,PAYLOAD,2023-04-30 07:35:21,15.08839301,0.0001443,53.2171,92.4904,87.8226,272.2932,4.1553e-05,3.73e-06,0.0,0 STARLINK-4218,1 53025U 22076AR  23120.31622004  .00000373  00000-0  41553-4 0  9993,2 53025  53.2171  92.4904 0001443  87.8226 272.2932 15.08839301 45799,6917.883,95.438,540.746,538.749,0.0
53025.0,STARLINK-4218,PAYLOAD,2023-05-01 04:15:21,15.08842492,0.000157,53.2181,88.6253,77.933,282.1838,9.6778e-05,1.253e-05,0.0,0 STARLINK-4218,1 53025U 22076AR  23121.17733746  .00001253  00000-0  96778-4 0  9991,2 53025  53.2181  88.6253 0001570  77.9330 282.1838 15.08842492 45454,6917.873,95.437,540.824,538.652,0.0
53025.0,STARLINK-4218,PAYLOAD,2023-05-02 04:06:08,15.0884377,0.0001268,53.2176,84.1643,90.56,269.5538,7.7621e-05,9.48e-06,0.0,0 STARLINK-4218,1 53025U 22076AR  23122.17093613  .00000948  00000-0  77621-4 0  9990,2 53025  53.2176  84.1643 0001268  90.5600 269.5538 15.08843770 46072,6917.869,95.437,540.611,538.857,0.0
53025.0,STARLINK-4218,PAYLOAD,2023-05-02 07:16:55,15.08844454,0.0001276,53.2177,83.5695,91.9588,268.155,8.0636e-05,9.96e-06,0.0,0 STARLINK-4218,1 53025U 22076AR  23122.30341524  .00000996  00000-0  80636-4 0  9995,2 53025  53.2177  83.5695 0001276  91.9588 268.1550 15.08844454 45621,6917.867,95.437,540.614,538.849,0.0
53025.0,STARLINK-4218,PAYLOAD,2023-05-02 21:35:23,15.08838079,0.0001417,53.2172,80.8917,107.8297,252.285,2.7145e-05,1.44e-06,0.0,0 STARLINK-4218,1 53025U 22076AR  23122.89957989  .00000144  00000-0  27145-4 0  9998,2 53025  53.2172  80.8917 0001417 107.8297 252.2850 15.08838079 45717,6917.886,95.438,540.732,538.771,0.0
